{"type": "FeatureCollection", "features": [ {"type": "Feature", "properties": {"norad_id": 42741, "name": "EUTELSAT 172B", "group": "eutelsat", "lat": -0.019623758766801804, "lon": 19.395266157839224, "alt_km": 35784.36726361236, "timestamp": "2025-12-26T07:29:18.130933+00:00", "meta": {"OBJECT_NAME": "EUTELSAT 172B", "OBJECT_ID": "2017-029B", "EPOCH": "2025-12-25T20:43:50.636064", "MEAN_MOTION": 1.00277797, "ECCENTRICITY": 3.199e-05, "INCLINATION": 0.0359, "RA_OF_ASC_NODE": 152.4382, "ARG_OF_PERICENTER": 137.6622, "MEAN_ANOMALY": 287.482, "EPHEMERIS_TYPE": 0, "CLASSIFICATION_TYPE": "U", "NORAD_CAT_ID": 42741, "ELEMENT_SET_NO": 999, "REV_AT_EPOCH": 3199, "BSTAR": 0, "MEAN_MOTION_DOT": 1.7e-07, "MEAN_MOTION_DDOT": 0}, "tle": {"line1": "1 42741U 17029B   25359.86378051  .00000017  00000+0  00000+0 0  9995", "line2": "2 42741   0.0359 152.4382 0000319 137.6622 287.4820  1.00277797 31995"}}, "geometry": {"type": "Point", "coordinates": [19.395266157839224, -0.019623758766801804]}}, {"type": "Feature", "properties": {"norad_id": 44334, "name": "EUTELSAT 7C", "group": "eutelsat", "lat": 0.03698122763400739, "lon": -145.6769491725925, "alt_km": 35776.54737284386, "timestamp": "2025-12-26T07:29:18.130945+00:00", "meta": {"OBJECT_NAME": "EUTELSAT 7C", "OBJECT_ID": "2019-034B", "EPOCH": "2025-12-24T14:50:38.546016", "MEAN_MOTION": 1.00270796, "ECCENTRICITY": 0.00031593, "INCLINATION": 0.0726, "RA_OF_ASC_NODE": 177.7928, "ARG_OF_PERICENTER": 79.9691, "MEAN_ANOMALY": 65.2631, "EPHEMERIS_TYPE": 0, "CLASSIFICATION_TYPE": "U", "NORAD_CAT_ID": 44334, "ELEMENT_SET_NO": 999, "REV_AT_EPOCH": 508, "BSTAR": 0, "MEAN_MOTION_DOT": 6.9e-07, "MEAN_MOTION_DDOT": 0}, "tle": {"line1": "1 44334U 19034B   25358.61850169  .00000069  00000+0  00000+0 0  9997", "line2": "2 44334   0.0726 177.7928 0003159  79.9691  65.2631  1.00270796  5083"}}, "geometry": {"type": "Point", "coordinates": [-145.6769491725925, 0.03698122763400739]}}, {"type": "Feature", "properties": {"norad_id": 44624, "name": "EUTELSAT 5 WEST B", "group": "eutelsat", "lat": -0.04234566181772389, "lon": -157.6568856473759, "alt_km": 35781.83360571486, "timestamp": "2025-12-26T07:29:18.130957+00:00", "meta": {"OBJECT_NAME": "EUTELSAT 5 WEST B", "OBJECT_ID": "2019-067A", "EPOCH": "2025-12-25T18:10:42.799584", "MEAN_MOTION": 1.00271274, "ECCENTRICITY": 0.00031839, "INCLINATION": 0.0627, "RA_OF_ASC_NODE": 345.6151, "ARG_OF_PERICENTER": 287.7229, "MEAN_ANOMALY": 88.854, "EPHEMERIS_TYPE": 0, "CLASSIFICATION_TYPE": "U", "NORAD_CAT_ID": 44624, "ELEMENT_SET_NO": 999, "REV_AT_EPOCH": 2269, "BSTAR": 0, "MEAN_MOTION_DOT": -2.1e-07, "MEAN_MOTION_DDOT": 0}, "tle": {"line1": "1 44624U 19067A   25359.75743981 -.00000021  00000+0  00000+0 0  9993", "line2": "2 44624   0.0627 345.6151 0003183 287.7229  88.8540  1.00271274 22690"}}, "geometry": {"type": "Point", "coordinates": [-157.6568856473759, -0.04234566181772389]}}, {"type": "Feature", "properties": {"norad_id": 45027, "name": "EUTELSAT KONNECT", "group": "eutelsat", "lat": 0.05296887204893448, "lon": -145.46069421761356, "alt_km": 35786.52720245777, "timestamp": "2025-12-26T07:29:18.130969+00:00", "meta": {"OBJECT_NAME": "EUTELSAT KONNECT", "OBJECT_ID": "2020-005B", "EPOCH": "2025-12-24T23:24:19.351008", "MEAN_MOTION": 1.00267204, "ECCENTRICITY": 0.0001571, "INCLINATION": 0.069, "RA_OF_ASC_NODE": 93.7711, "ARG_OF_PERICENTER": 204.5991, "MEAN_ANOMALY": 153.6522, "EPHEMERIS_TYPE": 0, "CLASSIFICATION_TYPE": "U", "NORAD_CAT_ID": 45027, "ELEMENT_SET_NO": 999, "REV_AT_EPOCH": 2259, "BSTAR": 0, "MEAN_MOTION_DOT": 7e-07, "MEAN_MOTION_DDOT": 0}, "tle": {"line1": "1 45027U 20005B   25358.97522397  .00000070  00000+0  00000+0 0  9997", "line2": "2 45027   0.0690  93.7711 0001571 204.5991 153.6522  1.00267204 22591"}}, "geometry": {"type": "Point", "coordinates": [-145.46069421761356, 0.05296887204893448]}}, {"type": "Feature", "properties": {"norad_id": 49056, "name": "EUTELSAT QUANTUM", "group": "eutelsat", "lat": -0.02656597290988682, "lon": -104.94264435283907, "alt_km": 35772.89149649763, "timestamp": "2025-12-26T07:29:18.130980+00:00", "meta": {"OBJECT_NAME": "EUTELSAT QUANTUM", "OBJECT_ID": "2021-069B", "EPOCH": "2025-12-25T22:23:38.633856", "MEAN_MOTION": 1.00271221, "ECCENTRICITY": 0.00035706, "INCLINATION": 0.0126, "RA_OF_ASC_NODE": 23.7639, "ARG_OF_PERICENTER": 259.6256, "MEAN_ANOMALY": 194.9069, "EPHEMERIS_TYPE": 0, "CLASSIFICATION_TYPE": "U", "NORAD_CAT_ID": 49056, "ELEMENT_SET_NO": 999, "REV_AT_EPOCH": 1619, "BSTAR": 0, "MEAN_MOTION_DOT": 1.48e-06, "MEAN_MOTION_DDOT": 0}, "tle": {"line1": "1 49056U 21069B   25359.93308604  .00000148  00000+0  00000+0 0  9990", "line2": "2 49056   0.0126  23.7639 0003570 259.6256 194.9069  1.00271221 16196"}}, "geometry": {"type": "Point", "coordinates": [-104.94264435283907, -0.02656597290988682]}}, {"type": "Feature", "properties": {"norad_id": 53765, "name": "EUTELSAT KONNECT VHTS", "group": "eutelsat", "lat": 0.05013649108184714, "lon": -149.9423234253937, "alt_km": 35778.97700989369, "timestamp": "2025-12-26T07:29:18.130992+00:00", "meta": {"OBJECT_NAME": "EUTELSAT KONNECT VHTS", "OBJECT_ID": "2022-110A", "EPOCH": "2025-12-25T13:04:49.589760", "MEAN_MOTION": 1.00267512, "ECCENTRICITY": 0.0002526, "INCLINATION": 0.0614, "RA_OF_ASC_NODE": 98.0209, "ARG_OF_PERICENTER": 151.222, "MEAN_ANOMALY": 43.9766, "EPHEMERIS_TYPE": 0, "CLASSIFICATION_TYPE": "U", "NORAD_CAT_ID": 53765, "ELEMENT_SET_NO": 999, "REV_AT_EPOCH": 508, "BSTAR": 0, "MEAN_MOTION_DOT": 3.8e-07, "MEAN_MOTION_DDOT": 0}, "tle": {"line1": "1 53765U 22110A   25359.54501840  .00000038  00000+0  00000+0 0  9992", "line2": "2 53765   0.0614  98.0209 0002526 151.2220  43.9766  1.00267512  5087"}}, "geometry": {"type": "Point", "coordinates": [-149.9423234253937, 0.05013649108184714]}}, {"type": "Feature", "properties": {"norad_id": 54048, "name": "EUTELSAT HOTBIRD 13F", "group": "eutelsat", "lat": -0.05433884125678666, "lon": -139.64767244042793, "alt_km": 35793.444267609506, "timestamp": "2025-12-26T07:29:18.131005+00:00", "meta": {"OBJECT_NAME": "EUTELSAT HOTBIRD 13F", "OBJECT_ID": "2022-134A", "EPOCH": "2025-12-24T23:25:56.697024", "MEAN_MOTION": 1.00270775, "ECCENTRICITY": 0.0002211, "INCLINATION": 0.0545, "RA_OF_ASC_NODE": 289.4002, "ARG_OF_PERICENTER": 71.817, "MEAN_ANOMALY": 97.0057, "EPHEMERIS_TYPE": 0, "CLASSIFICATION_TYPE": "U", "NORAD_CAT_ID": 54048, "ELEMENT_SET_NO": 999, "REV_AT_EPOCH": 1163, "BSTAR": 0, "MEAN_MOTION_DOT": 1.08e-06, "MEAN_MOTION_DDOT": 0}, "tle": {"line1": "1 54048U 22134A   25358.97635066  .00000108  00000+0  00000+0 0  9995", "line2": "2 54048   0.0545 289.4002 0002211  71.8170  97.0057  1.00270775 11630"}}, "geometry": {"type": "Point", "coordinates": [-139.64767244042793, -0.05433884125678666]}}, {"type": "Feature", "properties": {"norad_id": 54225, "name": "EUTELSAT HOTBIRD 13G", "group": "eutelsat", "lat": -0.021838526238399613, "lon": -139.63397715924845, "alt_km": 35781.62089367778, "timestamp": "2025-12-26T07:29:18.131018+00:00", "meta": {"OBJECT_NAME": "EUTELSAT HOTBIRD 13G", "OBJECT_ID": "2022-146A", "EPOCH": "2025-12-24T00:28:38.654112", "MEAN_MOTION": 1.00268836, "ECCENTRICITY": 0.00017131, "INCLINATION": 0.0535, "RA_OF_ASC_NODE": 227.8066, "ARG_OF_PERICENTER": 307.349, "MEAN_ANOMALY": 297.8001, "EPHEMERIS_TYPE": 0, "CLASSIFICATION_TYPE": "U", "NORAD_CAT_ID": 54225, "ELEMENT_SET_NO": 999, "REV_AT_EPOCH": 571, "BSTAR": 0, "MEAN_MOTION_DOT": 1.08e-06, "MEAN_MOTION_DDOT": 0}, "tle": {"line1": "1 54225U 22146A   25358.01989183  .00000108  00000+0  00000+0 0  9992", "line2": "2 54225   0.0535 227.8066 0001713 307.3490 297.8001  1.00268836  5716"}}, "geometry": {"type": "Point", "coordinates": [-139.63397715924845, -0.021838526238399613]}}, {"type": "Feature", "properties": {"norad_id": 54259, "name": "EUTELSAT 10B", "group": "eutelsat", "lat": 0.043395195567786884, "lon": -142.59586931783252, "alt_km": 35785.22458727177, "timestamp": "2025-12-26T07:29:18.131030+00:00", "meta": {"OBJECT_NAME": "EUTELSAT 10B", "OBJECT_ID": "2022-157A", "EPOCH": "2025-12-25T01:07:54.431328", "MEAN_MOTION": 1.00270064, "ECCENTRICITY": 6.834e-05, "INCLINATION": 0.06, "RA_OF_ASC_NODE": 95.6031, "ARG_OF_PERICENTER": 57.2113, "MEAN_ANOMALY": 328.0007, "EPHEMERIS_TYPE": 0, "CLASSIFICATION_TYPE": "U", "NORAD_CAT_ID": 54259, "ELEMENT_SET_NO": 999, "REV_AT_EPOCH": 1128, "BSTAR": 0, "MEAN_MOTION_DOT": 8.9e-07, "MEAN_MOTION_DDOT": 0}, "tle": {"line1": "1 54259U 22157A   25359.04715777  .00000089  00000+0  00000+0 0  9999", "line2": "2 54259   0.0600  95.6031 0000683  57.2113 328.0007  1.00270064 11285"}}, "geometry": {"type": "Point", "coordinates": [-142.59586931783252, 0.043395195567786884]}}, {"type": "Feature", "properties": {"norad_id": 59346, "name": "EUTELSAT 36D", "group": "eutelsat", "lat": -0.01743528770470476, "lon": -116.74501263974017, "alt_km": 35788.93079140426, "timestamp": "2025-12-26T07:29:18.131042+00:00", "meta": {"OBJECT_NAME": "EUTELSAT 36D", "OBJECT_ID": "2024-059A", "EPOCH": "2025-12-25T22:15:38.706912", "MEAN_MOTION": 1.00265814, "ECCENTRICITY": 3.451e-05, "INCLINATION": 0.0187, "RA_OF_ASC_NODE": 46.0762, "ARG_OF_PERICENTER": 344.367, "MEAN_ANOMALY": 74.0358, "EPHEMERIS_TYPE": 0, "CLASSIFICATION_TYPE": "U", "NORAD_CAT_ID": 59346, "ELEMENT_SET_NO": 999, "REV_AT_EPOCH": 641, "BSTAR": 0, "MEAN_MOTION_DOT": 1.77e-06, "MEAN_MOTION_DDOT": 0}, "tle": {"line1": "1 59346U 24059A   25359.92753133  .00000177  00000+0  00000+0 0  9997", "line2": "2 59346   0.0187  46.0762 0000345 344.3670  74.0358  1.00265814  6414"}}, "geometry": {"type": "Point", "coordinates": [-116.74501263974017, -0.01743528770470476]}}]}